[{"OBJECT_NAME":"STARLINK-6040","OBJECT_ID":"2023-078AU","EPOCH":"2026-03-09T21:18:16.576704","MEAN_MOTION":14.98329487,"ECCENTRICITY":0.00025315,"INCLINATION":70.001,"RA_OF_ASC_NODE":343.8081,"ARG_OF_PERICENTER":263.0396,"MEAN_ANOMALY":97.0475,"EPHEMERIS_TYPE":0,"CLASSIFICATION_TYPE":"U","NORAD_CAT_ID":56809,"ELEMENT_SET_NO":999,"REV_AT_EPOCH":15271,"BSTAR":-4.3575538e-5,"MEAN_MOTION_DOT":-6.13e-6,"MEAN_MOTION_DDOT":0},{"OBJECT_NAME":"CZ-6A DEB","OBJECT_ID":"2022-151NM","EPOCH":"2026-03-09T04:15:16.361280","MEAN_MOTION":14.99821734,"ECCENTRICITY":0.00563118,"INCLINATION":98.6044,"RA_OF_ASC_NODE":155.614,"ARG_OF_PERICENTER":130.481,"MEAN_ANOMALY":230.1339,"EPHEMERIS_TYPE":0,"CLASSIFICATION_TYPE":"U","NORAD_CAT_ID":54611,"ELEMENT_SET_NO":999,"REV_AT_EPOCH":17682,"BSTAR":0.0044540946,"MEAN_MOTION_DOT":0.00057345,"MEAN_MOTION_DDOT":0}]
